#cP2017  5 30  0  0  0.00000000      96 ORBIT IGS14 HLM  IGS
## 1951 172800.00000000   900.00000000 57903 0.0000000000000
+   32   G01G02G03G04G05G06G07G08G09G10G11G12G13G14G15G16G17
+        G18G19G20G21G22G23G24G25G26G27G28G29G30G31G32  0  0
+          0  0  0  0  0  0  0  0  0  0  0  0  0  0  0  0  0
+          0  0  0  0  0  0  0  0  0  0  0  0  0  0  0  0  0
+          0  0  0  0  0  0  0  0  0  0  0  0  0  0  0  0  0
++         2  2  2  0  2  2  2  2  2  2  2  3  2  2  2  2  2
++         2  2  2  3  2  2  3  2  2  2  2  2  2  2  2  0  0
++         0  0  0  0  0  0  0  0  0  0  0  0  0  0  0  0  0
++         0  0  0  0  0  0  0  0  0  0  0  0  0  0  0  0  0
++         0  0  0  0  0  0  0  0  0  0  0  0  0  0  0  0  0
%c G  cc GPS ccc cccc cccc cccc cccc ccccc ccccc ccccc ccccc
%c cc cc ccc ccc cccc cccc cccc cccc ccccc ccccc ccccc ccccc
%f  1.2500000  1.025000000  0.00000000000  0.000000000000000
%f  0.0000000  0.000000000  0.00000000000  0.000000000000000
%i    0    0    0    0      0      0      0      0         0
%i    0    0    0    0      0      0      0      0         0
/* RAPID ORBIT COMBINATION FROM WEIGHTED AVERAGE OF:        
/* cod emr esa gfz jpl ngs sio usn whu                      
/* REFERENCED TO IGS TIME (IGST) AND TO WEIGHTED MEAN POLE: 
/* PCV:IGS14_1930 OL/AL:FES2004  NONE     Y  ORB:CMB CLK:CMB
*  2017  5 30  6 45  0.00000000
PG01 -13901.744462  21339.912856   6901.618163     55.303650  3  5  5 102       
PG02  16371.270681  -2856.952673 -20147.375222    409.209771  4  7  5 104       
PG03 -16884.121039  13354.098021 -15538.356647    -97.835354  7  7  6  78       
PG04 -14706.397075  -3023.500278 -21492.473559 999999.999999
PG05  26456.227259  -2185.170647  -2693.883594    -43.723193  3  8  8  96       
PG06   9885.632349  13497.053533 -20602.353597    357.602016  3  5  5 109       
PG07  -5441.163447  24872.235991   6892.972589    345.698694  3 11  6  97       
PG08 -14999.818957   4896.773890  21429.769825    -61.437696  6  6  4  62       
PG09   4012.275852  21763.153934 -14698.476654    373.921713  7  6  6  64       
PG10 -14057.558191 -11676.553299  19343.511537    -40.097030  4  7  2 108       
PG11 -11268.849342  18749.389141  14538.299594   -691.691886  5  8  6 121       
PG12  21536.824464  -9725.489584 -12082.655712    382.518358  8  8  8 102       
PG13  17684.472860   3503.540127  19373.571616    -83.601669  4 10  6 102       
PG14 -18170.822010 -17850.863136  -7547.211457    -72.560027  6 11  7 108       
PG15  12489.855227  -9753.224210  21158.780740   -350.831995  6  5  6  74       
PG16 -26561.155560   -645.383535  -3496.880540     34.100315  3  6  7 116       
PG17  14543.636719  22295.921948   1482.286500   -177.228236  6  9  6  82       
PG18  -4071.418291 -15771.706889  21574.127443    617.827881  4  9  7 116       
PG19  17648.560091  18280.283138  -7497.911424   -501.741748  3  6  7  89       
PG20  20322.272526 -13185.267840  10740.488187    474.180079  6  7  5 108       
PG21   -716.092693 -23984.638528  12045.019546   -504.027529  6  8  6 116       
PG22 -23606.164748   9832.028739  -7042.627027     -6.164211  5  8  4  94       
PG23  -6683.543731  15257.894669 -20352.282087   -212.689331  3  6  6  81       
PG24  14580.926234 -19872.936144   9485.767908    -35.528376  8  5  7 104       
PG25   8243.619735 -15023.736892 -20382.554573   -395.989472  5  8  6 106       
PG26 -22559.125883  -5702.641978 -12893.977225   -498.174572  7  8    106       
PG27 -19785.072023  -7377.741714  16190.757071    266.599871        5 111       
PG28   9613.817717  13538.978021  21358.582958    616.838008  6  8  6 103       
PG29   -490.539431 -20533.592733 -16864.809912    599.770631  6 10  6 107       
PG30   3910.512642  20038.666604  16910.602458    155.497114  5  9  7 103       
PG31 -11010.883262 -11300.220640 -21236.639560    197.925766  6 10  6  87       
PG32 -16533.460905 -20823.376275    -43.667319   -427.251002  7  8  7 110       
*  2017  5 30  7  0  0.00000000
PG01 -13790.684512  20353.681657   9572.250413     55.304012  1  6  5  76       
PG02  15724.888507   -480.487854 -20858.465453    409.202808  5  7  6  77       
PG03 -18550.774863  13444.677379 -13411.418699    -97.833453  7  8  6  91       
PG04 -13531.730350  -5292.257443 -21869.235194 999999.999999
PG05  26060.292783  -1830.354493  -5457.857152    -43.721553  3  8  8  81       
PG06   9012.793434  15622.630151 -19469.133354    357.606517  4  4  5 108       
PG07  -5919.755987  25347.407815   4101.868594    345.694782  4 10  6  92       
PG08 -16507.252687   3036.096929  20658.775830    -61.438894  6  6  3  48       
PG09   2704.435069  20522.281637 -16655.878108    373.928901  7  6  7  68       
PG10 -11839.246689 -12168.881821  20482.815625    -40.087337  4  7  3  99       
PG11 -11643.520824  16889.556368  16336.202625   -691.694198  5  8  6 119       
PG12  22764.512347  -9702.946270  -9530.588730    382.517842  7  8  8 102       
PG13  18759.639854   5372.416825  17881.660826    -83.603232  5 10  6 102       
PG14 -18408.404977 -18585.421829  -4815.985283    -72.561125  6 11  6 121       
PG15  14174.052701  -7975.586918  20875.908274   -350.832673  5  5  6  73       
PG16 -26038.163096   -833.181997  -6313.450618     34.100365  4  6  7 125       
PG17  14220.745154  22174.760218   4342.172812   -177.226711  6 10  7  99       
PG18  -1767.501718 -16264.482159  21500.225781    617.829520  4  9  7 105       
PG19  17848.972490  18955.467502  -4706.838250   -501.740498  2  6  7  76       
PG20  21477.627944 -13173.612036   8250.962481    474.181022  6  7  6  95       
PG21   -113.723742 -24991.177117   9602.600138   -504.025508  7  9  7 107       
PG22 -24348.647262   9640.835803  -4370.343173     -6.175159  5  8  5  76       
PG23  -8327.699909  13464.819935 -21032.025744   -212.690145  4  7  6  74       
PG24  14453.082606 -18600.973302  11944.187538    -35.528298  8  4  6  84       
PG25  10459.621134 -15301.385863 -19090.640061   -395.995414  4  8  7 111       
PG26 -21025.552015  -6187.239544 -15071.166899   -498.169979  7  8    104       
PG27 -20790.977409  -8795.062963  14114.317789    266.605973        7 114       
PG28   7277.717364  13789.416599  22131.317256    616.840993  7  8  6 111       
PG29    805.711036 -18978.360375 -18584.684441    599.767464  6 10  7 102       
PG30   2991.025634  21639.703522  15007.146077    155.496189  6 10  7 105       
PG31 -10032.913959 -13495.936216 -20391.317052    197.923465  6 10  7  94       
PG32 -16235.806219 -20872.175427   2798.098360   -427.259960  7  8  7 106       
*  2017  5 30  7 15  0.00000000
PG01 -13645.024271  19080.331057  12074.811626     55.304400     7  5  89       
PG02  15179.520374   1980.944786 -21192.522293    409.195519  5  7  6  89       
PG03 -19963.361336  13563.475479 -11053.334141    -97.831555  7  7  5  76       
PG04 -12477.111761  -7635.975305 -21856.519249 999999.999999
PG05  25386.605033  -1382.023010  -8129.242687    -43.720119  4  8  8  87       
PG06   8296.040771  17650.103121 -18000.112954    357.611028  5  4  5  76       
PG07  -6275.508051  25539.181966   1238.497707    345.690606  5 10  5 102       
PG08 -18037.165095   1336.135760  19534.589586    -61.440083  5  6  3  53       
PG09   1193.326608  19201.712630 -18326.927146    373.936178  7  6  7  62       
PG10  -9542.866418 -12801.672356  21271.415487    -40.077722  4  7  3  89       
PG11 -12115.756025  14855.771597  17842.040744   -691.696431  6  8  6 115       
PG12  23697.901343  -9696.194652  -6813.730599    382.517015  7  8  8  88       
PG13  19820.708545   7030.475074  16078.807995    -83.603994  6 10  6 113       
PG14 -18488.789284 -19060.159862  -2002.197531    -72.562270  6 11  6 115       
PG15  15898.198575  -6317.332858  20229.878889   -350.833043  6  5  7  67       
PG16 -25220.467756  -1098.713258  -9024.310190     34.100955  5  6  7 117       
PG17  13687.042784  21829.062688   7128.508091   -177.225039  6 10  7  71       
PG18    486.166820 -16860.506582  21074.772150    617.831030  4  9  7 107       
PG19  17886.410296  19366.119558  -1833.847770   -501.739128     6  6  77       
PG20  22357.304798 -13124.139902   5618.648815    474.182401  6  6  6  86       
PG21    373.574939 -25756.333116   6998.865612   -504.023447  7  9  7 112       
PG22 -24803.978891   9403.501275  -1622.726509     -6.186152  5  8  5  87       
PG23 -10093.183342  11715.512038 -21340.114223   -212.690694  4  7  6  86       
PG24  14318.638580 -17065.832815  14193.555675    -35.528833  7  4  5  69       
PG25  12499.390227 -15662.364643 -17471.994924   -396.001396  4  8  7 104       
PG26 -19294.302977  -6806.882372 -16990.113881   -498.165405  8  9     96       
PG27 -21701.271685  -9973.830072  11796.700738    266.612033        7 108       
PG28   4896.947940  14184.834163  22544.397600    616.843662  7  8  6 109       
PG29   2300.034646 -17361.742452 -19985.279802    599.764158  6 10  7  98       
PG30   2231.700098  23068.921413  12843.778109    155.495309  6 10  7  97       
PG31  -9207.451440 -15632.294845 -19189.977957    197.921260  5 10  7  99       
PG32 -15721.441031 -20705.695184   5591.870648   -427.268925  7  8  7  98       
EOF
